{"type":"FeatureCollection","features":[{"type":"Feature","properties":{"district":"Ban Phaeo","province":"Samut Sakhon","lat":13.57135,"lng":100.12118},"geometry":{"type":"Polygon","coordinates":[[[100.17135,13.68063],[100.16361,13.67677],[100.15646,13.68062],[100.15611,13.68424],[100.12096,13.67914],[100.12344,13.66708],[100.11748,13.66638],[100.12177,13.65383],[100.10548,13.64925],[100.09965,13.65211],[100.09473,13.65035],[100.09323,13.65307],[100.08653,13.65076],[100.08411,13.65721],[100.06027,13.66029],[100.06088,13.65674],[100.05681,13.6473],[100.0586,13.63518],[100.05239,13.62787],[100.0539,13.61896],[100.04896,13.61886],[100.03783,13.61244],[100.03405,13.61411],[100.03111,13.61261],[100.04312,13.59484],[100.03878,13.59325],[100.04029,13.58312],[100.03722,13.5825],[100.046,13.55932],[100.04259,13.55759],[100.04309,13.53867],[100.02897,13.52882],[100.03174,13.52187],[100.02669,13.51741],[100.02943,13.50784],[100.04253,13.50376],[100.04197,13.49868],[100.0465,13.49701],[100.05316,13.4858],[100.07178,13.49359],[100.10564,13.50311],[100.11328,13.50038],[100.1141,13.50379],[100.11747,13.50475],[100.11655,13.50785],[100.12327,13.51957],[100.12859,13.51668],[100.13678,13.52563],[100.15126,13.53399],[100.15324,13.53758],[100.15682,13.5366],[100.16332,13.54254],[100.16221,13.55227],[100.15567,13.55661],[100.15218,13.56479],[100.16322,13.56549],[100.16159,13.57649],[100.18595,13.57565],[100.18178,13.58112],[100.17665,13.58126],[100.17463,13.5838],[100.18124,13.5849],[100.1829,13.58732],[100.18421,13.58343],[100.18713,13.58585],[100.18903,13.58354],[100.19247,13.58591],[100.19796,13.58426],[100.1994,13.58871],[100.20248,13.5894],[100.19988,13.59138],[100.20241,13.5932],[100.2103,13.58325],[100.21172,13.58764],[100.21655,13.58757],[100.22368,13.59505],[100.2279,13.60449],[100.22744,13.61997],[100.22526,13.62228],[100.21469,13.62103],[100.21323,13.62624],[100.21677,13.62944],[100.22489,13.62619],[100.22967,13.62716],[100.2329,13.63212],[100.23272,13.64253],[100.23039,13.64453],[100.21877,13.63839],[100.21196,13.64407],[100.20715,13.64253],[100.20702,13.65127],[100.20003,13.65109],[100.20036,13.65408],[100.18036,13.66448],[100.16966,13.67454],[100.17341,13.67856],[100.17135,13.68063]]]}},{"type":"Feature","properties":{"district":"Bang Bo","province":"Samut Prakan","lat":13.58486,"lng":100.85179},"geometry":{"type":"Polygon","coordinates":[[[100.93755,13.66868],[100.86077,13.6969],[100.85733,13.68011],[100.85918,13.67037],[100.85431,13.66693],[100.84689,13.65312],[100.84822,13.64718],[100.85257,13.64513],[100.85173,13.64145],[100.8469,13.64127],[100.84332,13.63214],[100.83923,13.63056],[100.83674,13.6219],[100.83817,13.61744],[100.84263,13.61484],[100.83998,13.61016],[100.84168,13.60184],[100.83536,13.59347],[100.83247,13.57864],[100.82162,13.57404],[100.82276,13.57103],[100.82842,13.57205],[100.82928,13.56647],[100.821,13.56538],[100.80957,13.57044],[100.8036,13.56191],[100.79927,13.56289],[100.79622,13.5669],[100.79024,13.54858],[100.78754,13.55163],[100.78104,13.54914],[100.7804,13.55151],[100.77216,13.55366],[100.76406,13.52763],[100.76586,13.52177],[100.77699,13.52053],[100.77985,13.51562],[100.78374,13.51631],[100.78676,13.51312],[100.7831,13.51084],[100.78512,13.50878],[100.78037,13.49197],[100.79078,13.49301],[100.80468,13.48757],[100.81284,13.4891],[100.83322,13.48241],[100.84731,13.48069],[100.84839,13.47842],[100.85013,13.48335],[100.85999,13.4844],[100.86311,13.48962],[100.86961,13.48822],[100.87247,13.49435],[100.87159,13.51269],[100.87408,13.52049],[100.87212,13.52392],[100.87953,13.54818],[100.88642,13.55714],[100.88963,13.55806],[100.89005,13.56461],[100.90404,13.5541],[100.9151,13.57174],[100.91339,13.57751],[100.90699,13.58056],[100.90714,13.59205],[100.91901,13.59475],[100.9235,13.59369],[100.96097,13.63604],[100.96388,13.64453],[100.95343,13.64878],[100.95298,13.6586],[100.95582,13.66238],[100.93755,13.66868]]]}},{"type":"Feature","properties":{"district":"Bang Bon","province":"Bangkok","lat":13.66448,"lng":100.39324},"geometry":{"type":"Polygon","coordinates":[[[100.4468,13.68257],[100.43753,13.69363],[100.39276,13.66905],[100.38839,13.66804],[100.38325,13.67169],[100.36057,13.6613],[100.35714,13.66162],[100.34952,13.65513],[100.34684,13.65534],[100.34545,13.64473],[100.34861,13.64373],[100.34852,13.64101],[100.3544,13.64084],[100.35545,13.63654],[100.3587,13.63732],[100.35906,13.63278],[100.36601,13.63362],[100.3718,13.62273],[100.37648,13.6197],[100.4468,13.68257]]]}},{"type":"Feature","properties":{"district":"Bang Bua Thong","province":"Nonthaburi","lat":13.91868,"lng":100.42149},"geometry":{"type":"Polygon","coordinates":[[[100.44963,13.88912],[100.44785,13.89794],[100.43935,13.89941],[100.44584,13.91994],[100.44132,13.9206],[100.44431,13.9309],[100.44204,13.93204],[100.45077,13.9482],[100.41408,13.98456],[100.39864,13.98337],[100.36524,13.99205],[100.35613,14.00076],[100.34965,13.99664],[100.35538,13.98495],[100.35605,13.97522],[100.35498,13.96194],[100.35001,13.95387],[100.35624,13.94989],[100.34101,13.93065],[100.33055,13.92153],[100.34141,13.88999],[100.34176,13.88337],[100.35521,13.88236],[100.35733,13.8786],[100.36199,13.87871],[100.37017,13.91153],[100.37325,13.91129],[100.37715,13.89784],[100.39415,13.89323],[100.39705,13.89117],[100.39723,13.88746],[100.41971,13.87697],[100.42131,13.87194],[100.4191,13.86922],[100.42282,13.8685],[100.42726,13.8634],[100.4392,13.87191],[100.44512,13.87103],[100.44793,13.86737],[100.45041,13.86821],[100.44834,13.87064],[100.44731,13.88252],[100.44963,13.88912]]]}},{"type":"Feature","properties":{"district":"Bang Kapi","province":"Bangkok","lat":13.76963,"lng":100.6399},"geometry":{"type":"Polygon","coordinates":[[[100.66462,13.77537],[100.65618,13.77071],[100.64817,13.78477],[100.64272,13.78694],[100.63925,13.80411],[100.6341,13.8095],[100.63133,13.81919],[100.62598,13.81931],[100.61506,13.79977],[100.62364,13.80022],[100.62591,13.7881],[100.62905,13.7887],[100.63066,13.78411],[100.62827,13.77565],[100.63049,13.76325],[100.61525,13.76127],[100.60102,13.74823],[100.61109,13.74383],[100.63581,13.75012],[100.64556,13.74645],[100.64861,13.74182],[100.65925,13.73845],[100.66333,13.74023],[100.66632,13.74705],[100.67701,13.74906],[100.67889,13.7521],[100.66972,13.75628],[100.6688,13.76662],[100.66462,13.77537]]]}},{"type":"Feature","properties":{"district":"Bang Khae","province":"Bangkok","lat":13.71864,"lng":100.39677},"geometry":{"type":"Polygon","coordinates":[[[100.42782,13.68761],[100.42487,13.73206],[100.41776,13.73122],[100.41339,13.74793],[100.37322,13.75368],[100.35268,13.75216],[100.38134,13.69174],[100.38484,13.6714],[100.38839,13.66804],[100.42782,13.68761]]]}},{"type":"Feature","properties":{"district":"Bang Khen","province":"Bangkok","lat":13.86859,"lng":100.63485},"geometry":{"type":"Polygon","coordinates":[[[100.6845,13.87425],[100.68131,13.87968],[100.66934,13.88113],[100.65959,13.87949],[100.65311,13.88638],[100.65263,13.88295],[100.64428,13.88276],[100.64033,13.88675],[100.62388,13.88294],[100.61237,13.88622],[100.6088,13.88847],[100.61136,13.89237],[100.6087,13.8957],[100.61113,13.89978],[100.59539,13.88823],[100.58814,13.87962],[100.58648,13.85904],[100.58903,13.84595],[100.58987,13.84393],[100.60676,13.84923],[100.61347,13.84917],[100.63294,13.84254],[100.64086,13.84665],[100.65864,13.84776],[100.6583,13.85239],[100.66114,13.85258],[100.6632,13.85603],[100.66477,13.8547],[100.68037,13.85867],[100.68575,13.86921],[100.6845,13.87425]]]}},{"type":"Feature","properties":{"district":"Bang Kho Laem","province":"Bangkok","lat":13.69887,"lng":100.51242},"geometry":{"type":"Polygon","coordinates":[[[100.52995,13.70254],[100.52492,13.70089],[100.51463,13.70492],[100.51695,13.70965],[100.50817,13.71246],[100.49276,13.70144],[100.49,13.69526],[100.49556,13.68849],[100.51698,13.68268],[100.53176,13.69825],[100.52995,13.70254]]]}},{"type":"Feature","properties":{"district":"Bang Khun Thian","province":"Bangkok","lat":13.59149,"lng":100.42746},"geometry":{"type":"Polygon","coordinates":[[[100.37648,13.6197],[100.37852,13.59428],[100.38436,13.58952],[100.385,13.57913],[100.39149,13.5689],[100.39467,13.55499],[100.40102,13.55282],[100.41521,13.55714],[100.41464,13.55146],[100.42009,13.54524],[100.41407,13.53587],[100.40633,13.5358],[100.40884,13.49339],[100.42163,13.49474],[100.42581,13.49756],[100.43708,13.49677],[100.44306,13.50036],[100.45369,13.50198],[100.44446,13.55319],[100.44628,13.58499],[100.45397,13.60601],[100.45755,13.6044],[100.46395,13.60585],[100.46969,13.59267],[100.47365,13.59388],[100.47314,13.59914],[100.48073,13.60939],[100.48128,13.61633],[100.47215,13.62407],[100.47565,13.63054],[100.47033,13.65904],[100.46461,13.65567],[100.46115,13.65887],[100.45829,13.65785],[100.45039,13.66081],[100.45343,13.6689],[100.4468,13.68257],[100.37648,13.6197]]]}},{"type":"Feature","properties":{"district":"Bang Kruai","province":"Nonthaburi","lat":13.82309,"lng":100.43411},"geometry":{"type":"Polygon","coordinates":[[[100.42761,13.83386],[100.42548,13.8367],[100.42332,13.83605],[100.40303,13.824],[100.3994,13.83059],[100.36799,13.81567],[100.34965,13.81681],[100.3481,13.82475],[100.32811,13.82559],[100.3192,13.82256],[100.32791,13.80413],[100.45809,13.79832],[100.46966,13.79479],[100.46618,13.78892],[100.50068,13.8005],[100.51525,13.81327],[100.50235,13.81949],[100.49134,13.80956],[100.48771,13.8193],[100.48171,13.82084],[100.4774,13.83162],[100.47344,13.83235],[100.46602,13.82533],[100.45632,13.83098],[100.44015,13.82789],[100.42761,13.83386]]]}},{"type":"Feature","properties":{"district":"Bang Len","province":"Nakhon Pathom","lat":14.05082,"lng":100.17234},"geometry":{"type":"Polygon","coordinates":[[[100.28179,14.12688],[100.27948,14.12517],[100.28414,14.16959],[100.21249,14.17926],[100.21155,14.17713],[100.20137,14.17594],[100.2019,14.16995],[100.1881,14.16473],[100.18842,14.16302],[100.17445,14.16019],[100.17299,14.15494],[100.16931,14.15472],[100.16792,14.15163],[100.15974,14.15075],[100.16094,14.14681],[100.14003,14.1455],[100.1319,14.13901],[100.13129,14.1458],[100.09775,14.14808],[100.0744,14.14584],[100.07387,14.14791],[100.07049,14.14777],[100.06343,14.14544],[100.06302,14.12496],[100.06572,14.12437],[100.06742,14.11809],[100.06272,14.11678],[100.06242,14.10611],[100.06834,14.09799],[100.06637,14.0933],[100.06363,14.09534],[100.06029,14.08997],[100.05999,14.08048],[100.06455,14.07307],[100.0595,14.07051],[100.06063,14.05403],[100.05152,14.05158],[100.05344,14.0461],[100.05529,14.04649],[100.05554,14.03507],[100.05891,14.03253],[100.06428,14.03263],[100.07611,14.03556],[100.0778,14.04211],[100.088,14.0399],[100.09201,14.04268],[100.09389,14.05175],[100.11406,14.04314],[100.10738,14.0191],[100.10825,14.01082],[100.10375,14.01091],[100.09593,14.00275],[100.09519,13.99908],[100.09839,13.98464],[100.10238,13.98079],[100.10011,13.97056],[100.10411,13.96384],[100.10738,13.96689],[100.10895,13.96478],[100.11481,13.96477],[100.11588,13.96244],[100.1201,13.96392],[100.122,13.96004],[100.13243,13.95563],[100.15103,13.94176],[100.15981,13.93143],[100.16662,13.93052],[100.16867,13.92667],[100.17434,13.92593],[100.17727,13.92012],[100.19104,13.9152],[100.19804,13.91647],[100.19935,13.91241],[100.2096,13.90872],[100.2112,13.90494],[100.22391,13.90602],[100.22828,13.90498],[100.23331,13.89969],[100.2381,13.90347],[100.24962,13.90578],[100.26448,13.90298],[100.27428,13.90483],[100.28033,13.89025],[100.28331,13.89117],[100.28598,13.89233],[100.27612,13.91294],[100.26545,13.92061],[100.29822,13.96337],[100.27501,13.98186],[100.26773,13.99397],[100.26243,13.99812],[100.26558,14.00121],[100.26329,14.00435],[100.2665,14.00796],[100.26407,14.01017],[100.2697,14.02342],[100.27694,14.02394],[100.26895,14.03654],[100.26415,14.06011],[100.27229,14.06816],[100.27197,14.0723],[100.27597,14.07956],[100.27711,14.10121],[100.28373,14.1007],[100.28179,14.12688]]]}},{"type":"Feature","properties":{"district":"Bang Na","province":"Bangkok","lat":13.67004,"lng":100.62304},"geometry":{"type":"Polygon","coordinates":[[[100.64024,13.67794],[100.62465,13.67841],[100.62277,13.68443],[100.61052,13.68428],[100.60033,13.67994],[100.58877,13.68302],[100.57946,13.66922],[100.59653,13.66215],[100.60132,13.65703],[100.60556,13.65848],[100.61637,13.65268],[100.61784,13.65606],[100.63628,13.6485],[100.64076,13.65464],[100.64971,13.6525],[100.65379,13.66898],[100.64523,13.66961],[100.64024,13.67794]]]}},{"type":"Feature","properties":{"district":"Bang Phlat","province":"Bangkok","lat":13.78885,"lng":100.48895},"geometry":{"type":"Polygon","coordinates":[[[100.46618,13.78892],[100.49097,13.76193],[100.49768,13.76984],[100.50478,13.78533],[100.51531,13.79739],[100.51767,13.80519],[100.51652,13.81156],[100.51525,13.81327],[100.5005,13.80041],[100.46618,13.78892]]]}},{"type":"Feature","properties":{"district":"Bang Phli","province":"Samut Prakan","lat":13.61277,"lng":100.71592},"geometry":{"type":"Polygon","coordinates":[[[100.77216,13.55366],[100.76308,13.55585],[100.76235,13.55893],[100.7702,13.58858],[100.77477,13.59633],[100.77935,13.59498],[100.78627,13.61495],[100.78336,13.63723],[100.78059,13.63767],[100.78373,13.647],[100.78198,13.64735],[100.79353,13.66501],[100.79047,13.66786],[100.79215,13.671],[100.79067,13.67722],[100.77236,13.67343],[100.76321,13.67476],[100.77814,13.7006],[100.78555,13.70654],[100.78107,13.70989],[100.78336,13.71662],[100.70999,13.71678],[100.71238,13.70124],[100.69827,13.65633],[100.6787,13.66133],[100.66225,13.67132],[100.65544,13.67229],[100.64971,13.6525],[100.64481,13.65364],[100.62906,13.62882],[100.66356,13.61426],[100.67061,13.6139],[100.66766,13.60459],[100.67235,13.59955],[100.67315,13.59288],[100.67814,13.58596],[100.69892,13.58497],[100.70335,13.55559],[100.70761,13.54492],[100.70061,13.52774],[100.69803,13.5276],[100.69562,13.52341],[100.75295,13.51167],[100.76436,13.51143],[100.76681,13.52351],[100.76439,13.53022],[100.77216,13.55366]]]}},{"type":"Feature","properties":{"district":"Bang Rak","province":"Bangkok","lat":13.72746,"lng":100.52498},"geometry":{"type":"Polygon","coordinates":[[[100.51203,13.71934],[100.51741,13.71811],[100.54475,13.72617],[100.51569,13.73805],[100.5155,13.73244],[100.5123,13.72939],[100.51203,13.71934]]]}},{"type":"Feature","properties":{"district":"Bang Sao Thong","province":"Samut Prakan","lat":13.62353,"lng":100.80444},"geometry":{"type":"Polygon","coordinates":[[[100.85935,13.68956],[100.79455,13.71446],[100.78336,13.71662],[100.78107,13.70989],[100.78555,13.70654],[100.77814,13.7006],[100.76321,13.67476],[100.77236,13.67343],[100.79067,13.67722],[100.79215,13.671],[100.79047,13.66786],[100.79353,13.665],[100.78198,13.64735],[100.78373,13.647],[100.78059,13.63767],[100.78336,13.63723],[100.78627,13.61495],[100.77935,13.59498],[100.77477,13.59633],[100.7702,13.58858],[100.76308,13.55585],[100.7804,13.55151],[100.78104,13.54914],[100.78754,13.55163],[100.79024,13.54858],[100.79622,13.5669],[100.79927,13.56289],[100.8036,13.56191],[100.80957,13.57044],[100.821,13.56538],[100.82928,13.56647],[100.82842,13.57205],[100.82276,13.57103],[100.82162,13.57404],[100.83247,13.57864],[100.83536,13.59347],[100.84165,13.60175],[100.83998,13.61016],[100.84263,13.61484],[100.83817,13.61744],[100.83674,13.6219],[100.83923,13.63056],[100.84332,13.63214],[100.8469,13.64127],[100.85173,13.64145],[100.85257,13.64513],[100.84822,13.64718],[100.84689,13.65312],[100.85431,13.66693],[100.85918,13.67037],[100.85733,13.68002],[100.85935,13.68956]]]}},{"type":"Feature","properties":{"district":"Bang Sue","province":"Bangkok","lat":13.82492,"lng":100.52227},"geometry":{"type":"Polygon","coordinates":[[[100.51525,13.81327],[100.51749,13.80858],[100.5165,13.80036],[100.53742,13.79785],[100.545,13.81771],[100.54341,13.82066],[100.53712,13.82165],[100.54363,13.84963],[100.53597,13.84604],[100.5131,13.82473],[100.50929,13.82552],[100.50629,13.81934],[100.5074,13.81604],[100.51525,13.81327]]]}},{"type":"Feature","properties":{"district":"Bang Yai","province":"Nonthaburi","lat":13.84938,"lng":100.41431},"geometry":{"type":"Polygon","coordinates":[[[100.34176,13.88337],[100.33104,13.88155],[100.32668,13.88565],[100.32214,13.88476],[100.3224,13.87737],[100.31139,13.8764],[100.30198,13.87883],[100.29682,13.86955],[100.3192,13.82256],[100.32811,13.82559],[100.3481,13.82475],[100.34965,13.81681],[100.36799,13.81567],[100.3994,13.83059],[100.40303,13.824],[100.42395,13.8363],[100.42761,13.83386],[100.43103,13.83467],[100.43786,13.8419],[100.44399,13.84461],[100.4411,13.85202],[100.44378,13.85309],[100.44123,13.85783],[100.44825,13.86449],[100.4465,13.86997],[100.43815,13.87162],[100.42713,13.86346],[100.42282,13.8685],[100.4191,13.86922],[100.42131,13.87194],[100.41971,13.87697],[100.39723,13.88746],[100.39705,13.89117],[100.39415,13.89323],[100.37715,13.89784],[100.37325,13.91129],[100.36923,13.91148],[100.36199,13.87871],[100.35733,13.8786],[100.35521,13.88236],[100.34176,13.88337]]]}},{"type":"Feature","properties":{"district":"Bangkok Noi","province":"Bangkok","lat":13.76377,"lng":100.46869},"geometry":{"type":"Polygon","coordinates":[[[100.46594,13.78716],[100.46768,13.7797],[100.45761,13.7773],[100.45357,13.76798],[100.45414,13.76299],[100.46196,13.75156],[100.46205,13.74442],[100.47134,13.74319],[100.4883,13.74821],[100.48794,13.75685],[100.49097,13.76193],[100.46911,13.7871],[100.46594,13.78716]]]}},{"type":"Feature","properties":{"district":"Bangkok Yai","province":"Bangkok","lat":13.73416,"lng":100.47552},"geometry":{"type":"Polygon","coordinates":[[[100.46205,13.74442],[100.46293,13.73225],[100.46733,13.72513],[100.47306,13.72233],[100.48457,13.72487],[100.49197,13.74217],[100.4883,13.74821],[100.47134,13.74319],[100.46205,13.74442]]]}},{"type":"Feature","properties":{"district":"Bueng Kum","province":"Bangkok","lat":13.8102,"lng":100.65016},"geometry":{"type":"Polygon","coordinates":[[[100.66462,13.77537],[100.67514,13.78121],[100.6738,13.78383],[100.67657,13.78674],[100.66868,13.80567],[100.66665,13.8051],[100.66287,13.81009],[100.66013,13.82443],[100.66142,13.83348],[100.6579,13.83299],[100.6573,13.83557],[100.6486,13.83389],[100.64773,13.84417],[100.65016,13.8451],[100.64599,13.84737],[100.63927,13.84618],[100.62448,13.8174],[100.63133,13.81919],[100.6341,13.8095],[100.63925,13.80411],[100.64272,13.78694],[100.64817,13.78477],[100.65618,13.77071],[100.66462,13.77537]]]}},{"type":"Feature","properties":{"district":"Chatuchak","province":"Bangkok","lat":13.82147,"lng":100.57162},"geometry":{"type":"Polygon","coordinates":[[[100.58655,13.85893],[100.54363,13.84963],[100.53712,13.82165],[100.54341,13.82066],[100.545,13.81771],[100.53742,13.79785],[100.56609,13.79461],[100.56747,13.79928],[100.58834,13.80298],[100.59112,13.83749],[100.58655,13.85893]]]}},{"type":"Feature","properties":{"district":"Chom Thong","province":"Bangkok","lat":13.68915,"lng":100.46266},"geometry":{"type":"Polygon","coordinates":[[[100.4468,13.68257],[100.45343,13.6689],[100.45039,13.66081],[100.45829,13.65785],[100.46115,13.65887],[100.46461,13.65567],[100.47007,13.66018],[100.47589,13.66089],[100.47556,13.66358],[100.48213,13.66477],[100.48019,13.6692],[100.48852,13.67947],[100.48898,13.68465],[100.48151,13.69049],[100.48264,13.69522],[100.47954,13.69804],[100.47641,13.71118],[100.4718,13.71041],[100.46854,13.71239],[100.46923,13.71596],[100.46284,13.71789],[100.46334,13.71483],[100.4552,13.71258],[100.45589,13.70843],[100.45274,13.71012],[100.44999,13.70533],[100.43911,13.70936],[100.43471,13.6988],[100.4468,13.68257]]]}},{"type":"Feature","properties":{"district":"Din Daeng","province":"Bangkok","lat":13.77297,"lng":100.55987},"geometry":{"type":"Polygon","coordinates":[[[100.56163,13.79496],[100.56131,13.78706],[100.54834,13.76355],[100.54343,13.76272],[100.55251,13.75597],[100.56497,13.75513],[100.57342,13.77091],[100.5749,13.80107],[100.56747,13.79928],[100.56646,13.79468],[100.56163,13.79496]]]}},{"type":"Feature","properties":{"district":"Don Mueang","province":"Bangkok","lat":13.92151,"lng":100.5913},"geometry":{"type":"Polygon","coordinates":[[[100.61113,13.89978],[100.62659,13.92613],[100.62255,13.95025],[100.61285,13.9552],[100.60423,13.95426],[100.60568,13.9441],[100.59178,13.95034],[100.57406,13.95463],[100.56764,13.95159],[100.55889,13.91446],[100.58748,13.89938],[100.58294,13.89065],[100.59481,13.88763],[100.61113,13.89978]]]}},{"type":"Feature","properties":{"district":"Don Tum","province":"Nakhon Pathom","lat":13.94812,"lng":100.08647},"geometry":{"type":"Polygon","coordinates":[[[100.06428,14.03263],[100.06189,14.02318],[100.05937,14.02167],[100.06052,14.01415],[100.06274,14.01439],[100.06506,14.00881],[100.06105,14.00475],[100.06306,13.99387],[100.05955,13.99384],[100.05981,13.99695],[100.05703,13.99499],[100.05722,13.99074],[100.06408,13.99081],[100.05364,13.98872],[100.049,13.98365],[100.03973,13.98509],[100.03659,13.98059],[100.03683,13.97512],[100.03255,13.97384],[100.02723,13.97785],[100.02438,13.9768],[100.024,13.97259],[100.01898,13.9727],[100.01815,13.96278],[100.01298,13.96113],[100.01224,13.95625],[100.0147,13.95347],[100.01952,13.95581],[100.01919,13.9521],[100.0231,13.9501],[100.02363,13.94345],[100.01791,13.9452],[100.01717,13.94318],[100.02572,13.93629],[100.02709,13.94094],[100.03317,13.93703],[100.03571,13.93848],[100.03575,13.93595],[100.03822,13.93657],[100.04026,13.93387],[100.04564,13.93505],[100.04622,13.93171],[100.05101,13.93363],[100.05224,13.93119],[100.05499,13.93231],[100.05427,13.93455],[100.057,13.93359],[100.05793,13.92828],[100.05536,13.92544],[100.05739,13.91366],[100.06447,13.90456],[100.07392,13.90422],[100.07088,13.90073],[100.07613,13.89962],[100.07762,13.89315],[100.08382,13.89157],[100.09534,13.88336],[100.09672,13.87965],[100.09322,13.87801],[100.09253,13.87465],[100.09499,13.87209],[100.12105,13.87209],[100.12247,13.87461],[100.12902,13.87592],[100.13022,13.87879],[100.13483,13.87927],[100.13396,13.88363],[100.13834,13.88913],[100.13644,13.8906],[100.15174,13.89751],[100.1554,13.90097],[100.15345,13.90451],[100.16538,13.91041],[100.16701,13.91484],[100.17592,13.91773],[100.17447,13.92577],[100.16867,13.92667],[100.16662,13.93052],[100.15981,13.93143],[100.15103,13.94176],[100.13243,13.95563],[100.122,13.96004],[100.1201,13.96392],[100.11588,13.96244],[100.11481,13.96477],[100.10895,13.96478],[100.10738,13.96689],[100.10434,13.96368],[100.10011,13.97056],[100.10238,13.98079],[100.09839,13.98464],[100.09556,14.00169],[100.10375,14.01091],[100.10825,14.01082],[100.10738,14.0191],[100.11406,14.04314],[100.09389,14.05175],[100.09201,14.04268],[100.088,14.0399],[100.0778,14.04211],[100.07611,14.03556],[100.06428,14.03263]]]}},{"type":"Feature","properties":{"district":"Dusit","province":"Bangkok","lat":13.77961,"lng":100.52073},"geometry":{"type":"Polygon","coordinates":[[[100.49904,13.77267],[100.51913,13.75264],[100.53742,13.79785],[100.5165,13.80036],[100.50365,13.78358],[100.49904,13.77267]]]}},{"type":"Feature","properties":{"district":"Huai Khwang","province":"Bangkok","lat":13.76906,"lng":100.58552},"geometry":{"type":"Polygon","coordinates":[[[100.6041,13.7512],[100.59491,13.76259],[100.58834,13.80298],[100.5749,13.80107],[100.57342,13.77091],[100.5661,13.76],[100.5633,13.74789],[100.59815,13.74114],[100.6041,13.7512]]]}},{"type":"Feature","properties":{"district":"Kamphaeng Saen","province":"Nakhon Pathom","lat":14.00931,"lng":99.97918},"geometry":{"type":"Polygon","coordinates":[[[99.92703,13.93397],[99.92826,13.93893],[99.93457,13.9349],[99.94898,13.94543],[99.95425,13.94448],[99.96042,13.93604],[99.96502,13.93502],[99.97162,13.94506],[99.97082,13.93855],[99.98198,13.92811],[99.98377,13.91884],[99.9888,13.91853],[99.99179,13.91312],[99.99533,13.91427],[100.00184,13.91046],[100.01047,13.90358],[100.01458,13.89708],[100.02047,13.89826],[100.02427,13.89197],[100.0205,13.88916],[100.03362,13.8846],[100.03422,13.88805],[100.0406,13.88831],[100.04259,13.89698],[100.03388,13.90245],[100.03743,13.90944],[100.04298,13.90768],[100.04568,13.91132],[100.04934,13.90914],[100.05633,13.91111],[100.05834,13.91465],[100.05562,13.9168],[100.057,13.93359],[100.05427,13.93455],[100.05499,13.93231],[100.05224,13.93119],[100.05101,13.93363],[100.04622,13.93171],[100.04564,13.93505],[100.04026,13.93387],[100.03822,13.93657],[100.03575,13.93595],[100.03571,13.93848],[100.03317,13.93703],[100.02709,13.94094],[100.02563,13.93633],[100.01717,13.94318],[100.01791,13.9452],[100.02362,13.9434],[100.02275,13.95098],[100.01924,13.95202],[100.019,13.9563],[100.01338,13.95387],[100.01175,13.95904],[100.01808,13.96266],[100.01898,13.9727],[100.024,13.97259],[100.02438,13.9768],[100.02723,13.97785],[100.03255,13.97384],[100.03683,13.97512],[100.03659,13.98059],[100.03973,13.98509],[100.049,13.98365],[100.05364,13.98872],[100.06408,13.99081],[100.05722,13.99074],[100.05703,13.99499],[100.05981,13.99695],[100.05955,13.99384],[100.06306,13.99387],[100.06105,14.00475],[100.06506,14.00881],[100.06274,14.01439],[100.06052,14.01415],[100.05937,14.02167],[100.06189,14.02318],[100.06428,14.03263],[100.05561,14.03494],[100.05529,14.04649],[100.05344,14.0461],[100.05152,14.05158],[100.06063,14.05403],[100.0595,14.07051],[100.06455,14.07307],[100.05999,14.08048],[100.06046,14.09093],[100.06383,14.09545],[100.06637,14.0933],[100.06819,14.09678],[100.0684,14.09941],[100.06242,14.10611],[100.06272,14.11678],[100.06742,14.11809],[100.06572,14.12437],[100.06302,14.12496],[100.06343,14.14544],[100.05165,14.14609],[100.04852,14.15218],[100.03917,14.15364],[100.02968,14.15147],[100.02757,14.14796],[100.01991,14.14791],[100.01502,14.14502],[100.01528,14.14722],[100.00402,14.14115],[100.00093,14.14324],[99.99214,14.1393],[99.97718,14.1394],[99.97446,14.14307],[99.96559,14.13876],[99.97096,14.13373],[99.96508,14.13079],[99.94492,14.13495],[99.94352,14.13157],[99.93953,14.13113],[99.93979,14.12663],[99.93331,14.12389],[99.92709,14.12772],[99.89225,14.09012],[99.88519,14.09082],[99.86828,14.07358],[99.85366,14.0788],[99.84523,14.07572],[99.83533,14.07912],[99.82407,14.07642],[99.82204,14.07245],[99.81752,14.07186],[99.8141,14.06424],[99.82118,14.06126],[99.83301,14.06088],[99.84906,14.0512],[99.8471,14.03971],[99.84112,14.0367],[99.84204,14.03336],[99.83936,14.03058],[99.83686,14.0309],[99.8384,14.02622],[99.83599,14.02501],[99.83452,14.01584],[99.83661,14.01246],[99.82919,13.99838],[99.83954,13.98325],[99.84366,13.98315],[99.85234,13.96608],[99.85393,13.9646],[99.86431,13.96631],[99.87541,13.96162],[99.8821,13.94977],[99.88534,13.95041],[99.90157,13.9402],[99.92703,13.93397]]]}},{"type":"Feature","properties":{"district":"Khan Na Yao","province":"Bangkok","lat":13.82891,"lng":100.67145},"geometry":{"type":"Polygon","coordinates":[[[100.64599,13.84737],[100.65021,13.84483],[100.64773,13.84417],[100.6486,13.83389],[100.6573,13.83557],[100.6579,13.83299],[100.66142,13.83348],[100.66013,13.82443],[100.66287,13.81009],[100.66665,13.8051],[100.66868,13.80567],[100.67354,13.79632],[100.67657,13.78674],[100.6738,13.78383],[100.67514,13.78121],[100.70496,13.79768],[100.70056,13.80458],[100.70186,13.80914],[100.69753,13.81267],[100.69704,13.82022],[100.68794,13.83464],[100.68385,13.84813],[100.67084,13.85276],[100.67546,13.85638],[100.6632,13.85603],[100.66114,13.85258],[100.6583,13.85239],[100.65864,13.84776],[100.64599,13.84737]]]}},{"type":"Feature","properties":{"district":"Khlong Luang","province":"Pathum Thani","lat":14.10833,"lng":100.69596},"geometry":{"type":"Polygon","coordinates":[[[100.58214,14.12864],[100.60143,13.99561],[100.65322,14.00746],[100.67896,14.00974],[100.72132,14.03086],[100.73156,14.03136],[100.73155,14.03328],[100.7555,14.04477],[100.75505,14.21107],[100.69283,14.18156],[100.61967,14.14312],[100.61983,14.12899],[100.61482,14.12896],[100.6069,14.13621],[100.58214,14.12864]]]}},{"type":"Feature","properties":{"district":"Khlong Sam Wa","province":"Bangkok","lat":13.86166,"lng":100.72627},"geometry":{"type":"Polygon","coordinates":[[[100.67546,13.85638],[100.67084,13.85276],[100.68385,13.84813],[100.68794,13.83464],[100.69704,13.82022],[100.69678,13.81549],[100.70578,13.82114],[100.71544,13.8219],[100.71457,13.83134],[100.72018,13.8315],[100.72019,13.83728],[100.72232,13.83749],[100.72255,13.82751],[100.72973,13.82767],[100.72966,13.83645],[100.73993,13.8374],[100.74416,13.83476],[100.74932,13.82207],[100.79946,13.84954],[100.78742,13.87999],[100.79094,13.88191],[100.79593,13.89055],[100.79234,13.89351],[100.79259,13.93139],[100.75191,13.91836],[100.68695,13.91625],[100.68364,13.91152],[100.68697,13.90935],[100.69229,13.8981],[100.69211,13.88672],[100.68993,13.8797],[100.6846,13.87463],[100.68577,13.86932],[100.68311,13.862],[100.67546,13.85638]]]}},{"type":"Feature","properties":{"district":"Khlong San","province":"Bangkok","lat":13.72137,"lng":100.49895},"geometry":{"type":"Polygon","coordinates":[[[100.50817,13.71246],[100.5125,13.72111],[100.51162,13.73164],[100.50802,13.7362],[100.49765,13.73922],[100.49221,13.72312],[100.49315,13.71291],[100.49864,13.70514],[100.50817,13.71246]]]}},{"type":"Feature","properties":{"district":"Khlong Toei","province":"Bangkok","lat":13.7173,"lng":100.57291},"geometry":{"type":"Polygon","coordinates":[[[100.60166,13.70467],[100.59841,13.71033],[100.5507,13.74285],[100.55487,13.70548],[100.56713,13.70451],[100.58392,13.6961],[100.60166,13.70467]]]}},{"type":"Feature","properties":{"district":"Krathum Baen","province":"Samut Sakhon","lat":13.66426,"lng":100.26973},"geometry":{"type":"Polygon","coordinates":[[[100.2279,13.60449],[100.2494,13.60329],[100.25263,13.6078],[100.26541,13.60871],[100.26572,13.60426],[100.27062,13.60494],[100.27096,13.6092],[100.27988,13.61259],[100.28179,13.62032],[100.28531,13.61998],[100.28586,13.6224],[100.31251,13.61959],[100.31367,13.62372],[100.32196,13.62573],[100.32362,13.63058],[100.33611,13.63884],[100.35024,13.6405],[100.34545,13.64473],[100.34684,13.65534],[100.33938,13.65499],[100.3413,13.66083],[100.34013,13.66663],[100.3376,13.67733],[100.33357,13.6814],[100.33056,13.69917],[100.33343,13.70649],[100.33233,13.71246],[100.33612,13.71082],[100.33877,13.71277],[100.33311,13.72084],[100.32421,13.71733],[100.3204,13.72092],[100.31604,13.72009],[100.3156,13.72301],[100.30909,13.7217],[100.30873,13.72481],[100.3065,13.72394],[100.30722,13.71984],[100.30082,13.72006],[100.30401,13.71518],[100.29806,13.71419],[100.29697,13.71774],[100.29007,13.71779],[100.28887,13.71498],[100.28365,13.71406],[100.28651,13.7082],[100.28466,13.7077],[100.28372,13.69732],[100.28685,13.69423],[100.27816,13.69282],[100.27697,13.68824],[100.27075,13.6834],[100.26197,13.6854],[100.25858,13.67962],[100.25575,13.68072],[100.24367,13.67464],[100.24075,13.67987],[100.22717,13.67273],[100.22417,13.68141],[100.21187,13.68143],[100.21245,13.68345],[100.20981,13.68482],[100.20323,13.67833],[100.18909,13.67401],[100.18207,13.68887],[100.17695,13.68801],[100.16966,13.67454],[100.1835,13.66221],[100.20036,13.65408],[100.20003,13.65109],[100.20702,13.65127],[100.20593,13.64342],[100.21196,13.64407],[100.21877,13.63839],[100.23039,13.64453],[100.23272,13.64253],[100.2329,13.63212],[100.22967,13.62716],[100.22489,13.62619],[100.21677,13.62944],[100.21323,13.62624],[100.21469,13.62103],[100.2269,13.62113],[100.2279,13.60449]]]}},{"type":"Feature","properties":{"district":"Lak Si","province":"Bangkok","lat":13.87744,"lng":100.57514},"geometry":{"type":"Polygon","coordinates":[[[100.59481,13.88763],[100.58274,13.89077],[100.58748,13.89938],[100.55889,13.91446],[100.54363,13.84963],[100.58655,13.85893],[100.58814,13.87962],[100.59481,13.88763]]]}},{"type":"Feature","properties":{"district":"Lam Luk Ka","province":"Pathum Thani","lat":13.97226,"lng":100.77846},"geometry":{"type":"Polygon","coordinates":[[[100.91422,13.96128],[100.91484,14.06821],[100.75559,14.01376],[100.72001,13.99984],[100.71794,13.99605],[100.69716,13.99132],[100.69709,13.98758],[100.69176,13.9853],[100.60514,13.96555],[100.60653,13.95438],[100.61285,13.9552],[100.62475,13.94897],[100.62552,13.93821],[100.63977,13.93759],[100.64088,13.93141],[100.68973,13.93105],[100.68695,13.91625],[100.75191,13.91836],[100.7926,13.93154],[100.91398,13.94649],[100.91422,13.96128]]]}},{"type":"Feature","properties":{"district":"Lat Krabang","province":"Bangkok","lat":13.75482,"lng":100.7829},"geometry":{"type":"Polygon","coordinates":[[[100.86077,13.6969],[100.85507,13.69927],[100.87883,13.73788],[100.87482,13.73916],[100.86706,13.75182],[100.86465,13.76514],[100.8608,13.77047],[100.84263,13.77098],[100.83749,13.7676],[100.83235,13.76748],[100.82281,13.77978],[100.81475,13.78428],[100.80878,13.78164],[100.79389,13.78387],[100.79621,13.79191],[100.78855,13.80039],[100.78166,13.79834],[100.78398,13.7819],[100.76486,13.78173],[100.75977,13.7755],[100.74656,13.77787],[100.74631,13.77348],[100.73894,13.77322],[100.73893,13.7774],[100.73355,13.77478],[100.7164,13.77811],[100.71608,13.77169],[100.70661,13.75676],[100.70986,13.7564],[100.70832,13.73139],[100.70999,13.71678],[100.78795,13.71661],[100.85935,13.68956],[100.86077,13.6969]]]}},{"type":"Feature","properties":{"district":"Lat Lum Kaeo","province":"Pathum Thani","lat":14.03017,"lng":100.399},"geometry":{"type":"Polygon","coordinates":[[[100.3805,13.98881],[100.38155,13.99472],[100.4344,13.98128],[100.45348,13.96734],[100.45793,13.97752],[100.46061,13.97645],[100.46223,13.97164],[100.4708,13.973],[100.4735,13.97808],[100.46706,13.98748],[100.47134,13.99111],[100.47081,13.99684],[100.44863,14.00803],[100.44992,14.01559],[100.45827,14.02798],[100.48299,14.01459],[100.49554,14.03836],[100.49291,14.04047],[100.4966,14.04715],[100.48043,14.05723],[100.48293,14.06096],[100.47817,14.0658],[100.48033,14.0707],[100.46223,14.08259],[100.42586,14.09795],[100.42245,14.10192],[100.42208,14.11399],[100.34404,14.11503],[100.34067,14.09389],[100.33209,14.0653],[100.33389,14.046],[100.34371,14.02204],[100.35576,14.00045],[100.36458,13.99228],[100.3805,13.98881]]]}},{"type":"Feature","properties":{"district":"Lat Phrao","province":"Bangkok","lat":13.82996,"lng":100.60593},"geometry":{"type":"Polygon","coordinates":[[[100.62448,13.8174],[100.63712,13.84467],[100.62869,13.84269],[100.62,13.84837],[100.60699,13.84927],[100.58987,13.84393],[100.58838,13.80284],[100.5964,13.80128],[100.59964,13.79613],[100.61289,13.79481],[100.62448,13.8174]]]}},{"type":"Feature","properties":{"district":"Min Buri","province":"Bangkok","lat":13.81341,"lng":100.75537},"geometry":{"type":"Polygon","coordinates":[[[100.70496,13.79768],[100.7164,13.77811],[100.73355,13.77478],[100.73893,13.7774],[100.73894,13.77322],[100.74646,13.77349],[100.74656,13.77787],[100.75977,13.7755],[100.76486,13.78173],[100.78398,13.7819],[100.78166,13.79834],[100.78855,13.80039],[100.79509,13.79397],[100.80775,13.80798],[100.80177,13.80946],[100.80092,13.81725],[100.80393,13.82587],[100.80591,13.82609],[100.80801,13.83694],[100.80651,13.8441],[100.80183,13.84252],[100.799,13.84929],[100.74932,13.82207],[100.74416,13.83476],[100.73993,13.8374],[100.72966,13.83645],[100.72973,13.82767],[100.72255,13.82751],[100.72232,13.83749],[100.72019,13.83728],[100.72018,13.8315],[100.71457,13.83134],[100.71544,13.8219],[100.70578,13.82114],[100.69678,13.81549],[100.70186,13.80914],[100.70056,13.80458],[100.70496,13.79768]]]}},{"type":"Feature","properties":{"district":"Mueang Nakhon Pathom","province":"Nakhon Pathom","lat":13.82706,"lng":100.00898},"geometry":{"type":"Polygon","coordinates":[[[99.93792,13.76977],[99.9429,13.75118],[99.9423,13.74455],[99.9476,13.74],[99.94891,13.73373],[99.95402,13.73308],[99.95455,13.72523],[99.95674,13.72593],[99.95947,13.72193],[99.9758,13.73121],[99.98936,13.73453],[99.98965,13.73764],[99.99682,13.74264],[100.0011,13.73872],[100.01126,13.74527],[100.01978,13.74693],[100.02882,13.75437],[100.03055,13.74434],[100.02827,13.74412],[100.02883,13.7403],[100.02437,13.73911],[100.02291,13.73553],[100.02401,13.70297],[100.02673,13.7006],[100.02503,13.69827],[100.03318,13.69479],[100.03471,13.69157],[100.04125,13.69214],[100.04235,13.69597],[100.04875,13.69722],[100.05606,13.69427],[100.06454,13.69417],[100.06574,13.69601],[100.06789,13.69335],[100.07235,13.69824],[100.09716,13.70073],[100.10741,13.70479],[100.10057,13.72821],[100.10368,13.72843],[100.10134,13.74325],[100.10286,13.75309],[100.09845,13.76784],[100.10797,13.78769],[100.10974,13.78993],[100.11345,13.78892],[100.115,13.79532],[100.12555,13.81096],[100.12427,13.82563],[100.13166,13.84875],[100.1165,13.86748],[100.1165,13.87184],[100.09499,13.87209],[100.09253,13.87465],[100.09322,13.87801],[100.09672,13.87965],[100.09534,13.88336],[100.08382,13.89157],[100.07762,13.89315],[100.07613,13.89962],[100.07088,13.90073],[100.07392,13.90422],[100.06447,13.90456],[100.05838,13.91333],[100.05366,13.90967],[100.04568,13.91132],[100.04298,13.90768],[100.03743,13.90944],[100.03388,13.90245],[100.04259,13.89698],[100.0406,13.88831],[100.03422,13.88805],[100.03362,13.8846],[100.0205,13.88916],[100.02427,13.89197],[100.02047,13.89826],[100.01458,13.89708],[100.01047,13.90358],[100.00184,13.91046],[99.99533,13.91427],[99.99179,13.91312],[99.9888,13.91853],[99.98377,13.91884],[99.98198,13.92811],[99.97082,13.93855],[99.97162,13.94506],[99.96475,13.93497],[99.96042,13.93604],[99.95425,13.94448],[99.94909,13.94543],[99.93457,13.9349],[99.92826,13.93893],[99.92402,13.91924],[99.91667,13.91352],[99.92809,13.91006],[99.92309,13.89749],[99.91492,13.89774],[99.9069,13.88798],[99.9048,13.88254],[99.90992,13.87823],[99.91269,13.87137],[99.90089,13.84163],[99.90487,13.84112],[99.90924,13.84732],[99.91352,13.84335],[99.92055,13.84574],[99.92655,13.84275],[99.93321,13.84306],[99.93793,13.83992],[99.93566,13.83379],[99.94201,13.82986],[99.94843,13.83033],[99.95859,13.83625],[99.96426,13.82702],[99.96078,13.82387],[99.96347,13.82084],[99.9627,13.81285],[99.9663,13.81281],[99.97065,13.80836],[99.96867,13.8055],[99.97064,13.80356],[99.96968,13.79839],[99.95488,13.79529],[99.95597,13.79055],[99.95193,13.77356],[99.94505,13.77005],[99.93792,13.76977]]]}},{"type":"Feature","properties":{"district":"Mueang Nonthaburi","province":"Nonthaburi","lat":13.86611,"lng":100.47958},"geometry":{"type":"Polygon","coordinates":[[[100.44793,13.86737],[100.44825,13.86449],[100.44123,13.85783],[100.44378,13.85309],[100.4411,13.85202],[100.44399,13.84461],[100.42764,13.83382],[100.44015,13.82789],[100.45632,13.83098],[100.46602,13.82533],[100.47344,13.83235],[100.4774,13.83162],[100.48171,13.82084],[100.48771,13.8193],[100.49134,13.80956],[100.50235,13.81949],[100.5074,13.81604],[100.50629,13.81934],[100.50938,13.82561],[100.5131,13.82473],[100.53597,13.84604],[100.54363,13.84963],[100.55029,13.87759],[100.49754,13.89514],[100.49041,13.89442],[100.48469,13.88547],[100.47672,13.89157],[100.46308,13.89261],[100.44963,13.88912],[100.44731,13.88252],[100.44834,13.87064],[100.45048,13.86834],[100.44793,13.86737]]]}},{"type":"Feature","properties":{"district":"Mueang Pathum Thani","province":"Pathum Thani","lat":13.99377,"lng":100.54213},"geometry":{"type":"Polygon","coordinates":[[[100.60653,13.95438],[100.58928,14.07425],[100.58507,14.07326],[100.58781,14.06427],[100.58731,14.04906],[100.57832,14.04046],[100.56355,14.0381],[100.55441,14.04217],[100.5429,14.03004],[100.52134,14.03197],[100.4966,14.04715],[100.49291,14.04047],[100.49554,14.03836],[100.48299,14.01459],[100.45827,14.02798],[100.44992,14.01559],[100.44863,14.00803],[100.47081,13.99684],[100.47134,13.99111],[100.46706,13.98748],[100.47119,13.98366],[100.46997,13.98078],[100.47343,13.9764],[100.4708,13.973],[100.46242,13.97069],[100.46694,13.97049],[100.48625,13.95011],[100.48915,13.94265],[100.50016,13.93699],[100.50965,13.94344],[100.53152,13.94522],[100.53706,13.94989],[100.53903,13.9557],[100.56157,13.94938],[100.57406,13.95463],[100.59178,13.95034],[100.60568,13.9441],[100.60423,13.95426],[100.60653,13.95438]]]}},{"type":"Feature","properties":{"district":"Mueang Samut Prakan","province":"Samut Prakan","lat":13.58081,"lng":100.66989},"geometry":{"type":"Polygon","coordinates":[[[100.76586,13.52177],[100.76436,13.51143],[100.75295,13.51167],[100.69562,13.52341],[100.69803,13.5276],[100.70061,13.52774],[100.70761,13.54492],[100.70335,13.55559],[100.69902,13.58478],[100.69766,13.58651],[100.69059,13.5841],[100.67814,13.58596],[100.67315,13.59288],[100.67235,13.59955],[100.66766,13.60459],[100.67061,13.6139],[100.66356,13.61426],[100.62906,13.62882],[100.64481,13.65364],[100.64076,13.65464],[100.63628,13.6485],[100.63292,13.64884],[100.61784,13.65606],[100.61637,13.65268],[100.60556,13.65848],[100.60132,13.65703],[100.5921,13.66381],[100.59341,13.64973],[100.58702,13.62884],[100.57676,13.63422],[100.57276,13.63377],[100.56877,13.63733],[100.55776,13.62306],[100.55203,13.62053],[100.55276,13.61734],[100.56193,13.61249],[100.58433,13.61024],[100.59049,13.60711],[100.59214,13.59514],[100.57719,13.57086],[100.57746,13.55785],[100.59733,13.53899],[100.61189,13.5389],[100.63117,13.52064],[100.65416,13.51638],[100.6812,13.50623],[100.70566,13.5053],[100.70825,13.50435],[100.70777,13.50163],[100.7294,13.50049],[100.77658,13.49054],[100.78037,13.49197],[100.78512,13.50878],[100.7831,13.51084],[100.78676,13.51312],[100.78374,13.51631],[100.77985,13.51562],[100.77699,13.52053],[100.76586,13.52177]]]}},{"type":"Feature","properties":{"district":"Mueang Samut Sakhon","province":"Samut Sakhon","lat":13.52453,"lng":100.22286},"geometry":{"type":"Polygon","coordinates":[[[100.05316,13.4858],[100.07332,13.45635],[100.07932,13.42521],[100.14834,13.44889],[100.18715,13.45759],[100.19148,13.46077],[100.19286,13.4592],[100.19612,13.46178],[100.20292,13.46179],[100.20431,13.46392],[100.20739,13.46205],[100.20855,13.46427],[100.22318,13.46688],[100.2223,13.47016],[100.22737,13.46854],[100.22945,13.47254],[100.24173,13.47463],[100.2457,13.47328],[100.26604,13.4853],[100.27016,13.49068],[100.27428,13.50442],[100.28185,13.50664],[100.30311,13.4949],[100.33014,13.48649],[100.33111,13.48891],[100.33676,13.48665],[100.35533,13.48693],[100.37137,13.49054],[100.38009,13.48943],[100.38256,13.49236],[100.39054,13.49329],[100.39594,13.49107],[100.40884,13.49339],[100.40633,13.5358],[100.41407,13.53587],[100.42009,13.54524],[100.41464,13.55146],[100.41521,13.55714],[100.40102,13.55282],[100.39467,13.55499],[100.39149,13.5689],[100.385,13.57913],[100.38436,13.58952],[100.37852,13.59428],[100.37648,13.6197],[100.3718,13.62273],[100.36601,13.63362],[100.35906,13.63278],[100.3587,13.63732],[100.35538,13.63659],[100.35434,13.64089],[100.33611,13.63884],[100.32362,13.63058],[100.32196,13.62573],[100.31367,13.62372],[100.31251,13.61959],[100.28595,13.62242],[100.28531,13.61998],[100.28187,13.62036],[100.27988,13.61259],[100.27096,13.6092],[100.27062,13.60494],[100.26572,13.60426],[100.26541,13.60871],[100.25263,13.6078],[100.25174,13.60402],[100.24444,13.6028],[100.22797,13.60552],[100.22368,13.59505],[100.21655,13.58757],[100.21172,13.58764],[100.2103,13.58325],[100.20241,13.5932],[100.19988,13.59138],[100.20248,13.5894],[100.1994,13.58871],[100.19796,13.58426],[100.19247,13.58591],[100.18903,13.58354],[100.18713,13.58585],[100.18421,13.58343],[100.1829,13.58732],[100.18124,13.5849],[100.17463,13.5838],[100.17665,13.58126],[100.18178,13.58112],[100.18595,13.57565],[100.16159,13.57649],[100.16322,13.56549],[100.15218,13.56479],[100.15567,13.55661],[100.16221,13.55227],[100.16332,13.54254],[100.15682,13.5366],[100.15324,13.53758],[100.15126,13.53399],[100.13678,13.52563],[100.12859,13.51668],[100.12327,13.51957],[100.11655,13.50785],[100.11747,13.50475],[100.1141,13.50379],[100.11328,13.50038],[100.10564,13.50311],[100.07178,13.49359],[100.05316,13.4858]]]}},{"type":"Feature","properties":{"district":"Nakhon Chai Si","province":"Nakhon Pathom","lat":13.82424,"lng":100.17278},"geometry":{"type":"Polygon","coordinates":[[[100.17514,13.92272],[100.17592,13.91773],[100.16701,13.91484],[100.16538,13.91041],[100.15345,13.90451],[100.1554,13.90097],[100.15174,13.89751],[100.13644,13.8906],[100.13834,13.88913],[100.13396,13.88363],[100.13483,13.87927],[100.1165,13.87184],[100.1165,13.86748],[100.13185,13.84647],[100.12427,13.82563],[100.12555,13.81096],[100.115,13.79532],[100.11345,13.78892],[100.10974,13.78993],[100.10797,13.78769],[100.09845,13.76784],[100.10286,13.75309],[100.10134,13.74325],[100.10368,13.72843],[100.10057,13.72821],[100.10741,13.70479],[100.1311,13.70894],[100.13246,13.71396],[100.13616,13.71468],[100.13967,13.71169],[100.1431,13.71651],[100.14799,13.7148],[100.15136,13.72449],[100.15227,13.7377],[100.16027,13.73737],[100.16037,13.74085],[100.17109,13.74121],[100.17849,13.74457],[100.18336,13.74022],[100.1854,13.74113],[100.22147,13.77907],[100.22847,13.79265],[100.23935,13.79146],[100.24801,13.8018],[100.24921,13.80507],[100.24553,13.80546],[100.24019,13.80142],[100.23614,13.80258],[100.23818,13.81406],[100.24459,13.8172],[100.24284,13.82314],[100.24601,13.82851],[100.26438,13.82932],[100.26734,13.8644],[100.25595,13.90526],[100.23927,13.90387],[100.23326,13.89969],[100.22828,13.90498],[100.22391,13.90602],[100.2112,13.90494],[100.2096,13.90872],[100.19935,13.91241],[100.19804,13.91647],[100.19104,13.9152],[100.17514,13.92272]]]}},{"type":"Feature","properties":{"district":"Nong Chok","province":"Bangkok","lat":13.83669,"lng":100.85184},"geometry":{"type":"Polygon","coordinates":[[[100.91398,13.94649],[100.7926,13.93154],[100.79234,13.89351],[100.79593,13.89055],[100.79094,13.88191],[100.78742,13.87999],[100.80183,13.84252],[100.80651,13.8441],[100.80801,13.83705],[100.80591,13.82609],[100.80393,13.82587],[100.80092,13.81745],[100.80177,13.80946],[100.80775,13.80798],[100.79682,13.79712],[100.79363,13.78416],[100.80878,13.78164],[100.81475,13.78428],[100.82281,13.77978],[100.83235,13.76748],[100.83749,13.7676],[100.84263,13.77098],[100.8608,13.77047],[100.86465,13.76514],[100.86706,13.75182],[100.87472,13.73929],[100.87756,13.73809],[100.89043,13.75615],[100.90979,13.79048],[100.92891,13.80181],[100.93851,13.81425],[100.90755,13.8381],[100.91268,13.8468],[100.9042,13.84842],[100.91398,13.94649]]]}},{"type":"Feature","properties":{"district":"Nong Khaem","province":"Bangkok","lat":13.69429,"lng":100.34764},"geometry":{"type":"Polygon","coordinates":[[[100.38484,13.6714],[100.38141,13.69157],[100.35936,13.738],[100.33746,13.73604],[100.33514,13.73349],[100.33574,13.72299],[100.33023,13.72122],[100.33311,13.72084],[100.33877,13.71277],[100.33612,13.71082],[100.33233,13.71246],[100.33343,13.70649],[100.33056,13.69917],[100.33357,13.6814],[100.3376,13.67733],[100.34125,13.66131],[100.33938,13.65499],[100.34876,13.65482],[100.35726,13.66168],[100.38484,13.6714]]]}},{"type":"Feature","properties":{"district":"Nong Suea","province":"Pathum Thani","lat":14.15534,"lng":100.83327},"geometry":{"type":"Polygon","coordinates":[[[100.95112,14.27168],[100.89159,14.24365],[100.89155,14.27595],[100.75505,14.21107],[100.7555,14.04477],[100.91414,14.09963],[100.91396,14.2214],[100.94644,14.23713],[100.94537,14.24948],[100.95128,14.26215],[100.95112,14.27168]]]}},{"type":"Feature","properties":{"district":"Pak Kret","province":"Nonthaburi","lat":13.93901,"lng":100.48439},"geometry":{"type":"Polygon","coordinates":[[[100.44963,13.88912],[100.46308,13.89261],[100.47435,13.89216],[100.48469,13.88547],[100.49041,13.89442],[100.49741,13.89516],[100.55029,13.87759],[100.56755,13.9512],[100.55711,13.94983],[100.53903,13.9557],[100.53706,13.94989],[100.53152,13.94522],[100.50965,13.94344],[100.50019,13.93698],[100.48913,13.94268],[100.48624,13.95013],[100.46694,13.97049],[100.46242,13.97069],[100.46061,13.97645],[100.45793,13.97752],[100.45348,13.96734],[100.43479,13.98115],[100.38108,13.99478],[100.3805,13.98881],[100.39864,13.98337],[100.40965,13.98524],[100.41676,13.98323],[100.45077,13.9482],[100.44204,13.93204],[100.44431,13.9309],[100.44132,13.9206],[100.44584,13.91994],[100.43935,13.89941],[100.44785,13.89794],[100.44963,13.88912]]]}},{"type":"Feature","properties":{"district":"Pathum Wan","province":"Bangkok","lat":13.74553,"lng":100.53144},"geometry":{"type":"Polygon","coordinates":[[[100.54475,13.72617],[100.55291,13.72277],[100.55008,13.7484],[100.52529,13.7493],[100.51737,13.7531],[100.51569,13.73805],[100.54475,13.72617]]]}},{"type":"Feature","properties":{"district":"Phasi Charoen","province":"Bangkok","lat":13.72608,"lng":100.442},"geometry":{"type":"Polygon","coordinates":[[[100.43773,13.69368],[100.4347,13.6989],[100.43911,13.70936],[100.44999,13.70533],[100.45274,13.71012],[100.45589,13.70843],[100.4552,13.71258],[100.46334,13.71483],[100.46284,13.71789],[100.46923,13.71596],[100.47168,13.72274],[100.46719,13.72527],[100.46293,13.73225],[100.46205,13.74442],[100.44992,13.7405],[100.43504,13.74009],[100.41339,13.74793],[100.41776,13.73122],[100.42487,13.73206],[100.42782,13.68761],[100.43773,13.69368]]]}},{"type":"Feature","properties":{"district":"Phaya Thai","province":"Bangkok","lat":13.7803,"lng":100.54511},"geometry":{"type":"Polygon","coordinates":[[[100.53742,13.79785],[100.52789,13.77434],[100.54306,13.76289],[100.54834,13.76355],[100.56131,13.78706],[100.56163,13.79496],[100.53742,13.79785]]]}},{"type":"Feature","properties":{"district":"Phra Khanong","province":"Bangkok","lat":13.69312,"lng":100.61664},"geometry":{"type":"Polygon","coordinates":[[[100.64024,13.67794],[100.63711,13.69519],[100.63294,13.70303],[100.61632,13.70415],[100.61589,13.70684],[100.60574,13.70651],[100.58392,13.6961],[100.58861,13.69004],[100.58877,13.68302],[100.60033,13.67994],[100.61052,13.68428],[100.62277,13.68443],[100.62465,13.67841],[100.64024,13.67794]]]}},{"type":"Feature","properties":{"district":"Phra Nakhon","province":"Bangkok","lat":13.75568,"lng":100.49921},"geometry":{"type":"Polygon","coordinates":[[[100.49097,13.76193],[100.48794,13.75685],[100.48827,13.74827],[100.49337,13.74085],[100.49981,13.73863],[100.5094,13.76365],[100.49904,13.77267],[100.49097,13.76193]]]}},{"type":"Feature","properties":{"district":"Phra Pradaeng","province":"Samut Prakan","lat":13.63714,"lng":100.53752},"geometry":{"type":"Polygon","coordinates":[[[100.58877,13.68302],[100.58845,13.69043],[100.5821,13.69753],[100.57137,13.70308],[100.55807,13.70623],[100.5518,13.70181],[100.5518,13.6806],[100.54592,13.6714],[100.53733,13.66912],[100.5234,13.67788],[100.52041,13.67566],[100.522,13.67356],[100.52106,13.66919],[100.51759,13.66728],[100.51695,13.64571],[100.51529,13.64474],[100.5151,13.6394],[100.51807,13.63487],[100.51424,13.62838],[100.51639,13.61272],[100.52104,13.60515],[100.52404,13.60556],[100.52625,13.59882],[100.55028,13.61623],[100.55215,13.62068],[100.55776,13.62306],[100.56861,13.63727],[100.58702,13.62884],[100.59341,13.64973],[100.5921,13.66381],[100.57946,13.66922],[100.58877,13.68302]]]}},{"type":"Feature","properties":{"district":"Phra Samut Chedi","province":"Samut Prakan","lat":13.58197,"lng":100.49433},"geometry":{"type":"Polygon","coordinates":[[[100.45369,13.50198],[100.45841,13.50249],[100.46036,13.49927],[100.47146,13.50519],[100.47345,13.50175],[100.48021,13.50059],[100.48688,13.50411],[100.48848,13.50109],[100.49087,13.5051],[100.51348,13.50689],[100.51833,13.51022],[100.52006,13.50888],[100.52025,13.51088],[100.52282,13.50711],[100.52931,13.51004],[100.53119,13.50613],[100.53737,13.51064],[100.56942,13.51608],[100.57235,13.51491],[100.57598,13.51724],[100.58674,13.52986],[100.58805,13.53507],[100.58448,13.53927],[100.59733,13.53899],[100.58019,13.55371],[100.57613,13.56321],[100.57772,13.57202],[100.59188,13.59429],[100.59049,13.60711],[100.58433,13.61024],[100.56314,13.61212],[100.55136,13.61856],[100.52634,13.59881],[100.52404,13.60556],[100.51949,13.60485],[100.51374,13.60259],[100.51151,13.59685],[100.50482,13.5977],[100.49964,13.59564],[100.49671,13.58889],[100.49119,13.58616],[100.48191,13.59271],[100.48063,13.59801],[100.47693,13.59932],[100.47693,13.60296],[100.4731,13.59904],[100.47365,13.59388],[100.46969,13.59267],[100.46395,13.60585],[100.45755,13.6044],[100.45397,13.60601],[100.44659,13.58702],[100.44445,13.55354],[100.45369,13.50198]]]}},{"type":"Feature","properties":{"district":"Phutthamonthon","province":"Nakhon Pathom","lat":13.81849,"lng":100.27576},"geometry":{"type":"Polygon","coordinates":[[[100.3192,13.82256],[100.28598,13.89233],[100.28033,13.89025],[100.27428,13.90483],[100.26994,13.90297],[100.26927,13.90461],[100.26448,13.90298],[100.25612,13.9045],[100.26734,13.8644],[100.26438,13.82932],[100.24601,13.82851],[100.24284,13.82314],[100.24459,13.8172],[100.23818,13.81406],[100.23614,13.80258],[100.24019,13.80142],[100.24854,13.80526],[100.24982,13.79977],[100.25776,13.80341],[100.27127,13.80065],[100.27725,13.80275],[100.28862,13.79573],[100.30362,13.79584],[100.30338,13.79141],[100.31133,13.79397],[100.31242,13.78549],[100.30926,13.78501],[100.30998,13.76774],[100.32366,13.76807],[100.32522,13.76325],[100.3301,13.76309],[100.33094,13.77756],[100.33374,13.78344],[100.3307,13.79815],[100.3192,13.82256]]]}},{"type":"Feature","properties":{"district":"Pom Prap Sattru Phai","province":"Bangkok","lat":13.74993,"lng":100.51084},"geometry":{"type":"Polygon","coordinates":[[[100.5094,13.76365],[100.5039,13.74685],[100.51569,13.73805],[100.51717,13.755],[100.5094,13.76365]]]}},{"type":"Feature","properties":{"district":"Prawet","province":"Bangkok","lat":13.68845,"lng":100.67115},"geometry":{"type":"Polygon","coordinates":[[[100.65379,13.66898],[100.65544,13.67229],[100.65987,13.67016],[100.66115,13.6717],[100.67862,13.66136],[100.69827,13.65633],[100.71238,13.70124],[100.70839,13.7325],[100.65901,13.73786],[100.65348,13.73337],[100.6498,13.72877],[100.64793,13.71747],[100.65155,13.71825],[100.64919,13.70744],[100.651,13.70297],[100.63411,13.70069],[100.64071,13.67612],[100.64546,13.66948],[100.65379,13.66898]]]}},{"type":"Feature","properties":{"district":"Rat Burana","province":"Bangkok","lat":13.6706,"lng":100.50464},"geometry":{"type":"Polygon","coordinates":[[[100.49,13.69526],[100.4821,13.69394],[100.48186,13.68987],[100.48898,13.68465],[100.48853,13.67953],[100.48019,13.6692],[100.48213,13.66477],[100.47556,13.66358],[100.4758,13.66188],[100.48233,13.66307],[100.48539,13.65783],[100.49325,13.65574],[100.49404,13.65726],[100.50101,13.65296],[100.50823,13.66275],[100.51752,13.6616],[100.51759,13.66729],[100.52106,13.66919],[100.522,13.67356],[100.5204,13.67564],[100.5234,13.67788],[100.51338,13.68438],[100.49556,13.68849],[100.49,13.69526]]]}},{"type":"Feature","properties":{"district":"Ratchathewi","province":"Bangkok","lat":13.75784,"lng":100.54213},"geometry":{"type":"Polygon","coordinates":[[[100.54343,13.76272],[100.52789,13.77434],[100.51917,13.75273],[100.52535,13.7493],[100.5633,13.74789],[100.56497,13.75513],[100.55247,13.75599],[100.54343,13.76272]]]}},{"type":"Feature","properties":{"district":"Sai Mai","province":"Bangkok","lat":13.89424,"lng":100.65891},"geometry":{"type":"Polygon","coordinates":[[[100.6845,13.87425],[100.68993,13.8797],[100.69211,13.88673],[100.69229,13.8981],[100.68697,13.90935],[100.68364,13.91156],[100.68752,13.91725],[100.68973,13.93105],[100.64088,13.93141],[100.63977,13.93759],[100.62552,13.93821],[100.62539,13.94785],[100.62255,13.95025],[100.62659,13.92613],[100.6087,13.8957],[100.61137,13.89239],[100.60886,13.88833],[100.62388,13.88294],[100.6402,13.88675],[100.64425,13.88276],[100.65251,13.88293],[100.65311,13.88638],[100.65959,13.87949],[100.66934,13.88113],[100.68131,13.87968],[100.6845,13.87425]]]}},{"type":"Feature","properties":{"district":"Sai Noi","province":"Nonthaburi","lat":14.02479,"lng":100.32173},"geometry":{"type":"Polygon","coordinates":[[[100.35576,14.00045],[100.33668,14.03766],[100.33163,14.05641],[100.34404,14.11503],[100.33315,14.12893],[100.32084,14.12964],[100.3011,14.1398],[100.29677,14.13966],[100.28178,14.12701],[100.28373,14.1007],[100.27711,14.10121],[100.27597,14.07956],[100.27197,14.0723],[100.27229,14.06816],[100.26416,14.06016],[100.26895,14.03654],[100.27696,14.02409],[100.2697,14.02342],[100.26407,14.01017],[100.2665,14.00796],[100.26329,14.00435],[100.26558,14.00121],[100.26243,13.99812],[100.26773,13.99397],[100.27501,13.98186],[100.29822,13.96337],[100.26545,13.92061],[100.27612,13.91294],[100.29682,13.86955],[100.30198,13.87883],[100.31139,13.8764],[100.3224,13.87737],[100.32214,13.88476],[100.32668,13.88565],[100.33104,13.88155],[100.34176,13.88337],[100.34141,13.88999],[100.33055,13.92153],[100.34101,13.93065],[100.35624,13.94989],[100.35001,13.95387],[100.35498,13.96194],[100.35605,13.97522],[100.35538,13.98495],[100.34965,13.99664],[100.35576,14.00045]]]}},{"type":"Feature","properties":{"district":"Sam Khok","province":"Pathum Thani","lat":14.06294,"lng":100.55417},"geometry":{"type":"Polygon","coordinates":[[[100.58047,14.12775],[100.57361,14.12265],[100.56266,14.12243],[100.56021,14.11816],[100.55609,14.12027],[100.55189,14.11841],[100.55386,14.11497],[100.55357,14.11146],[100.55137,14.11109],[100.54643,14.11603],[100.52201,14.12391],[100.51773,14.13012],[100.49716,14.11606],[100.48178,14.11184],[100.46648,14.11191],[100.45329,14.11636],[100.42208,14.11399],[100.42223,14.10285],[100.42739,14.09702],[100.47192,14.07726],[100.48033,14.0707],[100.47817,14.0658],[100.48293,14.06096],[100.48043,14.05723],[100.5213,14.032],[100.5429,14.03004],[100.55441,14.04217],[100.56355,14.0381],[100.57687,14.04008],[100.58726,14.04892],[100.58781,14.06427],[100.58507,14.07326],[100.58928,14.07425],[100.58237,14.1274],[100.58047,14.12775]]]}},{"type":"Feature","properties":{"district":"Sam Phran","province":"Nakhon Pathom","lat":13.7164,"lng":100.20332},"geometry":{"type":"Polygon","coordinates":[[[100.17135,13.68063],[100.17502,13.68216],[100.17695,13.68801],[100.18181,13.68902],[100.18909,13.67401],[100.20323,13.67833],[100.20981,13.68482],[100.21245,13.68345],[100.21187,13.68143],[100.22417,13.68141],[100.22717,13.67273],[100.24075,13.67987],[100.24367,13.67464],[100.25575,13.68072],[100.25858,13.67962],[100.26197,13.6854],[100.27075,13.6834],[100.27697,13.68824],[100.27816,13.69282],[100.28685,13.69423],[100.28372,13.69732],[100.28466,13.7077],[100.28651,13.7082],[100.28365,13.71406],[100.28887,13.71498],[100.29007,13.71779],[100.29697,13.71774],[100.29806,13.71419],[100.30401,13.71518],[100.30082,13.72006],[100.30722,13.71984],[100.3065,13.72394],[100.30873,13.72481],[100.30909,13.7217],[100.3156,13.72301],[100.31604,13.72009],[100.3204,13.72092],[100.32421,13.71733],[100.33574,13.72299],[100.33514,13.73349],[100.33746,13.73604],[100.33258,13.76068],[100.32522,13.76325],[100.32366,13.76807],[100.30993,13.76786],[100.30926,13.78501],[100.31242,13.78549],[100.31133,13.79397],[100.30338,13.79141],[100.30362,13.79584],[100.28862,13.79573],[100.27725,13.80275],[100.27127,13.80065],[100.25776,13.80341],[100.24982,13.79977],[100.24787,13.80167],[100.23935,13.79146],[100.22847,13.79265],[100.22147,13.77907],[100.18471,13.74064],[100.17849,13.74457],[100.17109,13.74121],[100.16037,13.74085],[100.16027,13.73737],[100.15227,13.7377],[100.15136,13.72449],[100.14799,13.7148],[100.1431,13.71651],[100.13967,13.71169],[100.13616,13.71468],[100.13246,13.71396],[100.1311,13.70894],[100.10751,13.7051],[100.09716,13.70073],[100.07232,13.69823],[100.06789,13.69335],[100.06763,13.67936],[100.06352,13.67337],[100.06333,13.666],[100.06027,13.66029],[100.08411,13.65721],[100.08653,13.65076],[100.09323,13.65307],[100.09473,13.65035],[100.09965,13.65211],[100.10548,13.64925],[100.12177,13.65383],[100.11748,13.66638],[100.12344,13.66708],[100.12096,13.67914],[100.15611,13.68424],[100.15646,13.68062],[100.16361,13.67677],[100.17135,13.68063]]]}},{"type":"Feature","properties":{"district":"Samphanthawong","province":"Bangkok","lat":13.73939,"lng":100.50983},"geometry":{"type":"Polygon","coordinates":[[[100.51569,13.73805],[100.5039,13.74685],[100.49981,13.73863],[100.50916,13.73541],[100.5123,13.72939],[100.5155,13.73244],[100.51569,13.73805]]]}},{"type":"Feature","properties":{"district":"Saphan Sung","province":"Bangkok","lat":13.76113,"lng":100.68932},"geometry":{"type":"Polygon","coordinates":[[[100.65909,13.73839],[100.70839,13.7325],[100.70986,13.7564],[100.70663,13.75688],[100.71608,13.77169],[100.71668,13.77711],[100.70608,13.79833],[100.66462,13.77537],[100.6688,13.76662],[100.66972,13.75628],[100.67889,13.7521],[100.67701,13.74906],[100.66632,13.74705],[100.66333,13.74023],[100.65909,13.73839]]]}},{"type":"Feature","properties":{"district":"Sathon","province":"Bangkok","lat":13.7134,"lng":100.53209},"geometry":{"type":"Polygon","coordinates":[[[100.52995,13.70254],[100.52863,13.70599],[100.53761,13.70723],[100.53915,13.70443],[100.54361,13.70701],[100.54168,13.7106],[100.54902,13.71925],[100.55375,13.71654],[100.55291,13.72277],[100.54475,13.72617],[100.51741,13.71811],[100.51203,13.71934],[100.50817,13.71246],[100.51695,13.70965],[100.51463,13.70492],[100.52492,13.70089],[100.52995,13.70254]]]}},{"type":"Feature","properties":{"district":"Suan Luang","province":"Bangkok","lat":13.72306,"lng":100.62104},"geometry":{"type":"Polygon","coordinates":[[[100.60125,13.74809],[100.59837,13.73843],[100.60502,13.73771],[100.60674,13.71614],[100.60188,13.71195],[100.60642,13.70535],[100.61589,13.70684],[100.61632,13.70415],[100.63294,13.70303],[100.63411,13.70076],[100.651,13.70297],[100.64919,13.70744],[100.65155,13.71825],[100.64793,13.71747],[100.6498,13.72877],[100.65909,13.73839],[100.64861,13.74182],[100.64556,13.74645],[100.63581,13.75012],[100.61109,13.74383],[100.60125,13.74809]]]}},{"type":"Feature","properties":{"district":"Taling Chan","province":"Bangkok","lat":13.76047,"lng":100.44368},"geometry":{"type":"Polygon","coordinates":[[[100.41339,13.74793],[100.43504,13.74009],[100.44992,13.7405],[100.46205,13.74442],[100.46196,13.75156],[100.45414,13.76299],[100.45368,13.76881],[100.45761,13.7773],[100.46768,13.7797],[100.46598,13.78757],[100.46966,13.79479],[100.45809,13.79832],[100.41106,13.80135],[100.40616,13.74992],[100.41339,13.74793]]]}},{"type":"Feature","properties":{"district":"Thanyaburi","province":"Pathum Thani","lat":14.0375,"lng":100.77579},"geometry":{"type":"Polygon","coordinates":[[[100.60143,13.99561],[100.60514,13.96555],[100.69176,13.9853],[100.69709,13.98758],[100.69716,13.99132],[100.71794,13.99605],[100.72001,13.99984],[100.75559,14.01376],[100.91484,14.06821],[100.91414,14.09963],[100.75268,14.04381],[100.73155,14.03328],[100.73156,14.03136],[100.72132,14.03086],[100.67896,14.00974],[100.65322,14.00746],[100.60143,13.99561]]]}},{"type":"Feature","properties":{"district":"Thawi Watthana","province":"Bangkok","lat":13.765,"lng":100.36262},"geometry":{"type":"Polygon","coordinates":[[[100.40618,13.74944],[100.41106,13.80135],[100.32791,13.80413],[100.3339,13.78217],[100.33094,13.77756],[100.33011,13.76237],[100.33538,13.75329],[100.33746,13.73604],[100.35936,13.738],[100.35268,13.75216],[100.36911,13.7539],[100.40618,13.74944]]]}},{"type":"Feature","properties":{"district":"Thon Buri","province":"Bangkok","lat":13.7159,"lng":100.48325},"geometry":{"type":"Polygon","coordinates":[[[100.49864,13.70514],[100.49315,13.71291],[100.49221,13.72312],[100.49765,13.73922],[100.49197,13.74217],[100.48457,13.72487],[100.47168,13.72249],[100.46854,13.71239],[100.47641,13.71118],[100.47954,13.69804],[100.48262,13.69482],[100.49,13.69526],[100.49201,13.70061],[100.49864,13.70514]]]}},{"type":"Feature","properties":{"district":"Thung Khru","province":"Bangkok","lat":13.61834,"lng":100.4977},"geometry":{"type":"Polygon","coordinates":[[[100.47693,13.60296],[100.47693,13.59932],[100.48063,13.59801],[100.48191,13.59271],[100.49119,13.58616],[100.49671,13.58889],[100.49964,13.59564],[100.50482,13.5977],[100.51151,13.59685],[100.51374,13.60259],[100.52104,13.60515],[100.51639,13.61272],[100.51424,13.62838],[100.51807,13.63487],[100.5151,13.63948],[100.51752,13.6616],[100.50823,13.66275],[100.50101,13.65296],[100.49404,13.65726],[100.49325,13.65574],[100.48539,13.65783],[100.48233,13.66307],[100.47007,13.66018],[100.47565,13.63054],[100.47215,13.62407],[100.48171,13.61534],[100.47693,13.60296]]]}},{"type":"Feature","properties":{"district":"Vadhana","province":"Bangkok","lat":13.72851,"lng":100.59132},"geometry":{"type":"Polygon","coordinates":[[[100.5633,13.74789],[100.55008,13.7484],[100.5507,13.74285],[100.59841,13.71033],[100.60166,13.70467],[100.60574,13.70651],[100.60188,13.71195],[100.60674,13.71614],[100.60502,13.73771],[100.59847,13.7383],[100.59815,13.74114],[100.5633,13.74789]]]}},{"type":"Feature","properties":{"district":"Wang Thonglang","province":"Bangkok","lat":13.78034,"lng":100.60892},"geometry":{"type":"Polygon","coordinates":[[[100.61506,13.79977],[100.61289,13.79481],[100.60535,13.79517],[100.59959,13.79615],[100.5964,13.80128],[100.58838,13.80284],[100.59491,13.76259],[100.6041,13.7512],[100.61525,13.76127],[100.63049,13.76325],[100.62827,13.77565],[100.63066,13.78411],[100.62905,13.7887],[100.62591,13.7881],[100.62364,13.80022],[100.61506,13.79977]]]}},{"type":"Feature","properties":{"district":"Yan Nawa","province":"Bangkok","lat":13.69564,"lng":100.54009},"geometry":{"type":"Polygon","coordinates":[[[100.51698,13.68268],[100.53502,13.6697],[100.54103,13.66917],[100.54736,13.6726],[100.55162,13.67977],[100.5514,13.70008],[100.55487,13.70548],[100.55248,13.71805],[100.54902,13.71925],[100.54168,13.7106],[100.54361,13.70701],[100.53915,13.70443],[100.53761,13.70723],[100.52863,13.70599],[100.53176,13.69825],[100.51698,13.68268]]]}}]}